NORAD_CAT_ID,OBJECT_NAME,OBJECT_TYPE,EPOCH,MEAN_MOTION,ECCENTRICITY,INCLINATION,RA_OF_ASC_NODE,ARG_OF_PERICENTER,MEAN_ANOMALY,BSTAR,MEAN_MOTION_DOT,MEAN_MOTION_DDOT,TLE_LINE0,TLE_LINE1,TLE_LINE2,SEMIMAJOR_AXIS,PERIOD,APOGEE,PERIGEE,DECAYED
55305.0,STARLINK-5316,PAYLOAD,2023-12-19 05:11:27,14.98333125,0.0002115,69.9998,270.6581,248.0827,112.0107,-0.0001806,-2.247e-05,0.0,0 STARLINK-5316,1 55305U 23010AN  23353.21628982 -.00002247  00000-0 -18060-3 0  9993,2 55305  69.9998 270.6581 0002115 248.0827 112.0107 14.98333125 51725,6950.183,96.107,573.518,570.578,0.0
55305.0,STARLINK-5316,PAYLOAD,2023-12-20 03:37:20,14.98331069,0.000194,70.0001,268.301,239.1741,120.9227,-9.4902e-05,-1.225e-05,0.0,0 STARLINK-5316,1 55305U 23010AN  23354.15092776 -.00001225  00000-0 -94902-4 0  9998,2 55305  70.0001 268.3010 0001940 239.1741 120.9227 14.98331069 51541,6950.19,96.107,573.403,570.706,0.0
55305.0,STARLINK-5316,PAYLOAD,2023-12-20 21:14:48,14.98328938,0.0002071,69.9998,266.4491,255.221,104.872,0.00011824,1.318e-05,0.0,0 STARLINK-5316,1 55305U 23010AN  23354.88528320  .00001318  00000-0  11824-3 0  9999,2 55305  69.9998 266.4491 0002071 255.2210 104.8720 14.98328938 51978,6950.196,96.107,573.501,570.622,0.0
55305.0,STARLINK-5316,PAYLOAD,2023-12-21 03:39:20,14.98332464,0.0002068,69.9998,265.7758,249.225,110.8687,0.00018278,2.089e-05,0.0,0 STARLINK-5316,1 55305U 23010AN  23355.15231836  .00002089  00000-0  18278-3 0  9999,2 55305  69.9998 265.7758 0002068 249.2250 110.8687 14.98332464 51696,6950.185,96.107,573.488,570.613,0.0
55305.0,STARLINK-5316,PAYLOAD,2023-12-21 22:52:56,14.98338389,0.0002165,69.9994,263.7552,246.0562,114.0371,0.00011222,1.247e-05,0.0,0 STARLINK-5316,1 55305U 23010AN  23355.95343252  .00001247  00000-0  11222-3 0  9990,2 55305  69.9994 263.7552 0002165 246.0562 114.0371 14.98338389 52139,6950.167,96.106,573.537,570.527,0.0
55305.0,STARLINK-5316,PAYLOAD,2023-12-22 03:41:20,14.98342116,0.0002168,69.9994,263.2504,244.5391,115.5544,0.0001089,1.207e-05,0.0,0 STARLINK-5316,1 55305U 23010AN  23356.15370867  .00001207  00000-0  10890-3 0  9991,2 55305  69.9994 263.2504 0002168 244.5391 115.5544 14.98342116 51845,6950.155,96.106,573.527,570.514,0.0
55305.0,STARLINK-5316,PAYLOAD,2023-12-22 19:42:42,14.98325088,0.0002607,69.9992,261.567,249.3484,110.7395,-0.00021867,-2.701e-05,0.0,0 STARLINK-5316,1 55305U 23010AN  23356.82132758 -.00002701  00000-0 -21867-3 0  9998,2 55305  69.9992 261.5670 0002607 249.3484 110.7395 14.98325088 51943,6950.208,96.107,573.885,570.261,0.0
55305.0,STARLINK-5316,PAYLOAD,2023-12-22 21:18:51,14.98320992,0.0002636,69.9987,261.3994,270.2796,89.8061,-0.00026962,-3.308e-05,0.0,0 STARLINK-5316,1 55305U 23010AN  23356.88809317 -.00003308  00000-0 -26962-3 0  9991,2 55305  69.9987 261.3994 0002636 270.2796  89.8061 14.98320992 52277,6950.221,96.108,573.918,570.254,0.0
55305.0,STARLINK-5316,PAYLOAD,2023-12-23 03:43:23,14.98315678,0.0002793,69.998,260.7247,262.7719,97.3123,-0.00031152,-3.807e-05,0.0,0 STARLINK-5316,1 55305U 23010AN  23357.15513867 -.00003807  00000-0 -31152-3 0  9995,2 55305  69.9980 260.7247 0002793 262.7719  97.3123 14.98315678 51995,6950.237,96.108,574.043,570.161,0.0
55305.0,STARLINK-5316,PAYLOAD,2023-12-23 19:44:44,14.98325028,0.0002796,69.9979,259.0409,257.8305,102.2541,-0.00019138,-2.375e-05,0.0,0 STARLINK-5316,1 55305U 23010AN  23357.82273394 -.00002375  00000-0 -19138-3 0  9996,2 55305  69.9979 259.0409 0002796 257.8305 102.2541 14.98325028 52095,6950.208,96.107,574.017,570.13,0.0
55305.0,STARLINK-5316,PAYLOAD,2023-12-23 21:20:52,14.98325427,0.0002752,69.9979,258.8722,259.6161,100.4688,-0.00017037,-2.125e-05,0.0,0 STARLINK-5316,1 55305U 23010AN  23357.88949350 -.00002125  00000-0 -17037-3 0  9993,2 55305  69.9979 258.8722 0002752 259.6161 100.4688 14.98325427 52424,6950.207,96.107,573.985,570.159,0.0
55305.0,STARLINK-5316,PAYLOAD,2023-12-24 03:45:23,14.98334657,0.0002829,69.9978,258.2002,261.0427,99.0412,-3.9027e-05,-5.59e-06,0.0,0 STARLINK-5316,1 55305U 23010AN  23358.15652439 -.00000559  00000-0 -39027-4 0  9996,2 55305  69.9978 258.2002 0002829 261.0427  99.0412 14.98334657 52147,6950.178,96.107,574.01,570.077,0.0
55305.0,STARLINK-5316,PAYLOAD,2023-12-24 21:22:52,14.98324234,0.0002697,69.9982,256.3484,259.1485,100.9371,0.00032085,3.737e-05,0.0,0 STARLINK-5316,1 55305U 23010AN  23358.89088213  .00003737  00000-0  32085-3 0  9995,2 55305  69.9982 256.3484 0002697 259.1485 100.9371 14.98324234 52573,6950.211,96.107,573.95,570.201,0.0
55305.0,STARLINK-5316,PAYLOAD,2023-12-25 03:47:23,14.98333053,0.0002527,69.9985,255.6741,256.2585,103.8293,0.00038726,4.531e-05,0.0,0 STARLINK-5316,1 55305U 23010AN  23359.15791517  .00004531  00000-0  38726-3 0  9994,2 55305  69.9985 255.6741 0002527 256.2585 103.8293 14.98333053 52298,6950.183,96.107,573.805,570.292,0.0
55305.0,STARLINK-5316,PAYLOAD,2023-12-25 19:48:45,14.98327514,0.0002715,69.9979,253.99,262.7153,97.3698,-3.8221e-05,-5.49e-06,0.0,0 STARLINK-5316,1 55305U 23010AN  23359.82553184 -.00000549  00000-0 -38221-4 0  9992,2 55305  69.9979 253.9900 0002715 262.7153  97.3698 14.98327514 52393,6950.201,96.107,573.953,570.179,0.0
55305.0,STARLINK-5316,PAYLOAD,2023-12-25 21:24:54,14.98327033,0.0002719,69.998,253.8217,263.677,96.4079,-2.2435e-05,-3.61e-06,0.0,0 STARLINK-5316,1 55305U 23010AN  23359.89229167 -.00000361  00000-0 -22435-4 0  9992,2 55305  69.9980 253.8217 0002719 263.6770  96.4079 14.98327033 52720,6950.202,96.107,573.957,570.177,0.0
55305.0,STARLINK-5316,PAYLOAD,2023-12-26 03:49:26,14.98329018,0.0002512,69.9986,253.149,257.0235,103.0643,3.7503e-06,-4.8e-07,0.0,0 STARLINK-5316,1 55305U 23010AN  23360.15932957 -.00000048  00000-0  37503-5 0  9995,2 55305  69.9986 253.1490 0002512 257.0235 103.0643 14.98329018 52767,6950.196,96.107,573.807,570.315,0.0
55305.0,STARLINK-5316,PAYLOAD,2023-12-26 19:50:46,14.98338759,0.0002735,69.9985,251.4651,258.417,101.6682,-0.00014613,-1.836e-05,0.0,0 STARLINK-5316,1 55305U 23010AN  23360.82692587 -.00001836  00000-0 -14613-3 0  9993,2 55305  69.9985 251.4651 0002735 258.4170 101.6682 14.98338759 52541,6950.166,96.106,573.932,570.13,0.0
55305.0,STARLINK-5316,PAYLOAD,2023-12-26 21:26:54,14.98336782,0.0002436,69.9985,251.297,248.6476,111.4423,-0.0001105,-1.411e-05,0.0,0 STARLINK-5316,1 55305U 23010AN  23360.89368563 -.00001411  00000-0 -11050-3 0  9995,2 55305  69.9985 251.2970 0002436 248.6476 111.4423 14.98336782 52873,6950.172,96.107,573.73,570.344,0.0
55305.0,STARLINK-5316,PAYLOAD,2023-12-27 02:15:18,14.98323277,0.0002776,69.9985,250.7916,266.425,93.6592,0.00019032,2.178e-05,0.0,0 STARLINK-5316,1 55305U 23010AN  23361.09396671  .00002178  00000-0  19032-3 0  9996,2 55305  69.9985 250.7916 0002776 266.4250  93.6592 14.98323277 52583,6950.214,96.107,574.008,570.149,0.0
55305.0,STARLINK-5316,PAYLOAD,2023-12-27 21:28:55,14.98324921,0.0002612,69.9984,248.7717,265.2908,94.7953,2.9395e-05,2.58e-06,0.0,0 STARLINK-5316,1 55305U 23010AN  23361.89508725  .00000258  00000-0  29395-4 0  9990,2 55305  69.9984 248.7717 0002612 265.2908  94.7953 14.98324921 53024,6950.209,96.107,573.889,570.258,0.0
55305.0,STARLINK-5316,PAYLOAD,2023-12-28 02:17:19,14.98325768,0.0002574,69.9985,248.267,263.8811,96.2055,9.4916e-05,1.04e-05,0.0,0 STARLINK-5316,1 55305U 23010AN  23362.09536530  .00001040  00000-0  94916-4 0  9999,2 55305  69.9985 248.2670 0002574 263.8811  96.2055 14.98325768 52739,6950.206,96.107,573.86,570.282,0.0
55305.0,STARLINK-5316,PAYLOAD,2023-12-28 21:30:56,14.98327656,0.0002527,69.9983,246.2468,265.9713,94.1157,-4.6354e-05,-6.46e-06,0.0,0 STARLINK-5316,1 55305U 23010AN  23362.89648841 -.00000646  00000-0 -46354-4 0  9992,2 55305  69.9983 246.2468 0002527 265.9713  94.1157 14.98327656 53179,6950.2,96.107,573.821,570.309,0.0
55305.0,STARLINK-5316,PAYLOAD,2023-12-29 02:19:20,14.98328022,0.0002527,69.9984,245.7422,265.6075,94.4795,-3.9311e-05,-5.62e-06,0.0,0 STARLINK-5316,1 55305U 23010AN  23363.09676824 -.00000562  00000-0 -39311-4 0  9999,2 55305  69.9984 245.7422 0002527 265.6075  94.4795 14.98328022 52888,6950.199,96.107,573.82,570.308,0.0
55305.0,STARLINK-5316,PAYLOAD,2023-12-29 19:56:48,14.98335245,0.0002581,69.9984,243.8908,263.0079,97.0786,4.7253e-05,4.71e-06,0.0,0 STARLINK-5316,1 55305U 23010AN  23363.83112053  .00000471  00000-0  47253-4 0  9991,2 55305  69.9984 243.8908 0002581 263.0079  97.0786 14.98335245 52998,6950.177,96.107,573.836,570.248,0.0
55305.0,STARLINK-5316,PAYLOAD,2023-12-29 21:32:56,14.98335014,0.0002578,69.9984,243.7224,262.9042,97.1824,4.4567e-05,4.39e-06,0.0,0 STARLINK-5316,1 55305U 23010AN  23363.89788054  .00000439  00000-0  44567-4 0  9996,2 55305  69.9984 243.7224 0002578 262.9042  97.1824 14.98335014 53328,6950.177,96.107,573.834,570.251,0.0
55305.0,STARLINK-5316,PAYLOAD,2023-12-30 02:21:20,14.98336261,0.0002573,69.9985,243.218,262.3581,97.7285,5.5619e-05,5.71e-06,0.0,0 STARLINK-5316,1 55305U 23010AN  23364.09815880  .00000571  00000-0  55619-4 0  9994,2 55305  69.9985 243.2180 0002573 262.3581  97.7285 14.98336261 53357,6950.174,96.107,573.827,570.25,0.0
55305.0,STARLINK-5316,PAYLOAD,2023-12-30 19:58:49,14.98329914,0.000251,69.9988,241.3656,257.1121,102.9758,4.0803e-05,3.94e-06,0.0,0 STARLINK-5316,1 55305U 23010AN  23364.83252161  .00000394  00000-0  40803-4 0  9995,2 55305  69.9988 241.3656 0002510 257.1121 102.9758 14.98329914 53148,6950.193,96.107,573.803,570.314,0.0
55305.0,STARLINK-5316,PAYLOAD,2023-12-31 20:00:50,14.98332724,0.0002393,69.9992,238.8408,256.4683,103.6209,-3.4402e-05,-5.03e-06,0.0,0 STARLINK-5316,1 55305U 23010AN  23365.83392046 -.00000503  00000-0 -34402-4 0  9995,2 55305  69.9992 238.8408 0002393 256.4683 103.6209 14.98332724 53291,6950.184,96.107,573.713,570.386,0.0
55305.0,STARLINK-5316,PAYLOAD,2023-12-31 21:36:58,14.98331804,0.0002418,69.9991,238.6724,255.1592,104.93,-4.574e-05,-6.39e-06,0.0,0 STARLINK-5316,1 55305U 23010AN  23365.90068112 -.00000639  00000-0 -45740-4 0  9994,2 55305  69.9991 238.6724 0002418 255.1592 104.9300 14.98331804 53623,6950.187,96.107,573.733,570.372,0.0
